{"type": "FeatureCollection", "features": [{"type": "Feature", "properties": {"shapeID": "57670837B20379019036464", "shapeName": "South-East District"}, "geometry": {"type": "Polygon", "coordinates": [[[25.78912, -24.73281], [25.9027, -24.59842], [25.89581, -24.58487], [25.87359, -24.58222], [25.90299, -24.56771], [25.89118, -24.57077], [25.88836, -24.56601], [25.90061, -24.55514], [25.90518, -24.55769], [25.95002, -24.53558], [25.95176, -24.5385], [25.97278, -24.51263], [26.03301, -24.57957], [26.15057, -24.64668], [26.18859, -24.68677], [26.00667, -24.72402], [25.96367, -24.74918], [25.91632, -24.74525], [25.91064, -24.75345], [25.84716, -24.75525], [25.85074, -24.77424], [25.84342, -24.78002], [25.84167, -24.79008], [25.86244, -24.80822], [25.85899, -24.82659], [25.86661, -24.82323], [25.87492, -24.82819], [25.87698, -24.85619], [25.88255, -24.85888], [25.88315, -24.8753], [25.88919, -24.88167], [25.88517, -24.88812], [25.8779, -24.88764], [25.87725, -24.89852], [25.88188, -24.90239], [25.8737, -24.90401], [25.88278, -24.914], [25.86002, -24.924], [25.72894, -25.25705], [25.69982, -25.291], [25.68823, -25.376], [25.66212, -25.46729], [25.6127, -25.4472], [25.53901, -25.43584], [25.66827, -25.02787], [25.59975, -25.02177], [25.66091, -24.91169], [25.63375, -24.88567], [25.70903, -24.85352], [25.71563, -24.78728], [25.78912, -24.73281]]]}}, {"type": "Feature", "properties": {"shapeID": "57670837B30841156556030", "shapeName": "Kgatleng District"}, "geometry": {"type": "Polygon", "coordinates": [[[26.15057, -24.64668], [26.03301, -24.57957], [25.93615, -24.47147], [25.9271, -24.47819], [25.90831, -24.47668], [25.89573, -24.45913], [25.88623, -24.45521], [25.89458, -24.44821], [25.89763, -24.43562], [25.88393, -24.39837], [25.90616, -24.38583], [25.94491, -24.33095], [25.95065, -24.30271], [25.96783, -24.28597], [25.95556, -24.2853], [26.03221, -23.58114], [26.72201, -23.96232], [26.73045, -23.94978], [26.72976, -23.93678], [26.74032, -23.94067], [26.74226, -23.92643], [26.75836, -23.92484], [26.75609, -23.90665], [26.78024, -23.89269], [26.78703, -23.89419], [26.80046, -23.86283], [26.84356, -23.86117], [26.84423, -23.84116], [26.85528, -23.84036], [26.8725, -23.82386], [26.86522, -23.8136], [26.87075, -23.80523], [26.87834, -23.80103], [26.89655, -23.8027], [26.89726, -23.78374], [26.90746, -23.77662], [26.91598, -23.7836], [26.91671, -23.79572], [26.92548, -23.79522], [26.93083, -23.75464], [26.96212, -23.74675], [26.96399, -23.77715], [26.95187, -23.794], [26.94906, -23.81389], [26.94877, -23.82346], [26.95869, -23.8308], [26.9509, -23.84147], [26.9398, -23.8439], [26.93227, -23.85152], [26.93388, -23.85676], [26.95103, -23.86271], [26.95522, -23.87399], [26.94279, -23.88668], [26.94247, -23.9034], [26.92779, -23.92239], [26.93219, -23.95537], [26.91463, -23.97142], [26.9093, -24.02836], [26.88916, -24.05484], [26.88482, -24.08947], [26.8632, -24.09972], [26.8602, -24.10656], [26.86756, -24.12389], [26.86171, -24.1385], [26.87445, -24.14699], [26.87913, -24.16011], [26.87587, -24.16909], [26.86547, -24.172], [26.86448, -24.17913], [26.86813, -24.19006], [26.88328, -24.19017], [26.871, -24.2152], [26.86215, -24.2163], [26.85938, -24.22297], [26.86261, -24.23799], [26.86911, -24.24446], [26.85745, -24.25489], [26.85574, -24.26349], [26.85128, -24.26301], [26.84236, -24.27449], [26.83415, -24.2701], [26.83276, -24.27417], [26.82575, -24.2722], [26.81559, -24.28663], [26.80135, -24.28807], [26.80061, -24.3], [26.78972, -24.30128], [26.78583, -24.30657], [26.78157, -24.29896], [26.75194, -24.31318], [26.74615, -24.31145], [26.74709, -24.30652], [26.73336, -24.30414], [26.72009, -24.31977], [26.70399, -24.32182], [26.70264, -24.33469], [26.69701, -24.33921], [26.68904, -24.33674], [26.67567, -24.34405], [26.6757, -24.35119], [26.66414, -24.36203], [26.67008, -24.36748], [26.6689, -24.37269], [26.6587, -24.38505], [26.64658, -24.38176], [26.63556, -24.38754], [26.63269, -24.39559], [26.61709, -24.39841], [26.61307, -24.40664], [26.58746, -24.41073], [26.58615, -24.42075], [26.58155, -24.4229], [26.58406, -24.42642], [26.56559, -24.43608], [26.55965, -24.45361], [26.55265, -24.45183], [26.54673, -24.46541], [26.53805, -24.46624], [26.53631, -24.47514], [26.5103, -24.48804], [26.51022, -24.50275], [26.50151, -24.50843], [26.50022, -24.52279], [26.48122, -24.55705], [26.48205, -24.56691], [26.47106, -24.58897], [26.45184, -24.61056], [26.4263, -24.61778], [26.42138, -24.63396], [26.40869, -24.64563], [26.39341, -24.63672], [26.18859, -24.68677], [26.15057, -24.64668]]]}}, {"type": "Feature", "properties": {"shapeID": "57670837B74109899498700", "shapeName": "North-East District"}, "geometry": {"type": "Polygon", "coordinates": [[[27.36231, -20.46819], [27.37868, -20.47769], [27.43381, -20.48206], [27.4714, -20.46751], [27.54491, -20.48258], [27.57663, -20.4942], [27.60305, -20.48008], [27.62192, -20.47915], [27.64667, -20.49871], [27.67527, -20.4938], [27.68332, -20.48671], [27.69522, -20.49019], [27.72915, -20.52134], [27.72899, -20.55703], [27.71864, -20.57197], [27.72005, -20.58388], [27.71371, -20.58632], [27.7111, -20.59645], [27.70339, -20.60272], [27.7087, -20.62558], [27.70289, -20.6402], [27.70482, -20.66595], [27.73326, -20.70376], [27.7291, -20.71347], [27.73317, -20.71482], [27.72704, -20.72083], [27.73338, -20.74119], [27.72579, -20.77852], [27.73056, -20.79523], [27.71717, -20.79968], [27.71979, -20.80723], [27.71228, -20.83015], [27.71764, -20.83826], [27.69334, -20.86619], [27.69262, -20.88198], [27.70187, -20.90569], [27.68945, -20.93428], [27.71031, -20.95783], [27.70082, -20.98073], [27.7072, -21.00044], [27.69553, -21.00588], [27.70465, -21.03799], [27.69888, -21.04666], [27.68531, -21.05176], [27.69512, -21.07336], [27.69303, -21.08689], [27.6994, -21.09087], [27.70267, -21.10162], [27.71345, -21.10483], [27.71706, -21.11386], [27.72507, -21.11712], [27.72853, -21.12788], [27.74643, -21.1422], [27.75036, -21.15312], [27.7794, -21.15973], [27.78839, -21.17764], [27.80531, -21.17535], [27.81706, -21.19132], [27.81361, -21.19846], [27.82689, -21.20516], [27.83504, -21.22174], [27.85359, -21.23947], [27.86829, -21.26972], [27.88342, -21.28052], [27.88424, -21.2902], [27.90457, -21.30269], [27.9209, -21.33147], [27.92062, -21.36202], [27.94418, -21.38769], [27.95739, -21.41308], [27.9517, -21.43086], [27.96576, -21.43979], [27.97774, -21.45697], [27.97542, -21.46184], [27.96324, -21.46208], [27.95734, -21.4728], [27.9837, -21.48493], [27.9738, -21.49649], [27.97022, -21.5175], [27.97788, -21.52395], [27.9838, -21.51575], [28.00219, -21.51632], [27.9943, -21.52858], [28.00596, -21.54415], [28.01289, -21.56593], [28.00115, -21.56232], [27.97081, -21.56745], [27.96244, -21.55504], [27.94377, -21.55561], [27.93746, -21.54362], [27.9288, -21.53983], [27.87997, -21.54507], [27.86254, -21.52951], [27.85715, -21.53236], [27.8522, -21.55031], [27.82663, -21.54283], [27.77817, -21.5542], [27.75883, -21.56331], [27.74603, -21.55346], [27.61829, -21.53204], [27.60046, -21.5085], [27.5898, -21.50399], [27.5885, -21.49103], [27.5794, -21.4809], [27.55926, -21.49231], [27.5414, -21.46945], [27.51781, -21.47648], [27.49186, -21.45913], [27.48107, -21.43303], [27.46223, -21.42179], [27.45845, -21.39293], [27.42917, -21.36962], [27.40521, -21.3338], [27.40941, -21.30512], [27.40344, -21.29765], [27.40546, -21.28325], [27.39211, -21.25894], [27.3895, -21.23484], [27.39389, -21.21206], [27.38363, -21.19604], [27.38782, -21.18673], [27.37898, -21.17653], [27.35918, -21.16782], [27.3488, -21.14534], [27.35096, -21.11975], [27.34725, -21.11251], [27.35766, -21.10012], [27.36083, -21.06931], [27.3565, -21.06055], [27.3631, -21.05567], [27.36083, -21.04072], [27.34319, -21.03376], [27.35107, -21.02566], [27.3456, -21.00128], [27.34933, -20.99603], [27.33525, -20.98371], [27.33013, -20.95915], [27.32062, -20.95153], [27.32058, -20.94341], [27.27446, -20.87582], [27.25946, -20.8643], [27.22726, -20.85823], [27.22955, -20.83544], [27.21544, -20.81512], [27.21903, -20.80491], [27.21438, -20.7937], [27.21652, -20.7801], [27.22839, -20.76664], [27.22255, -20.75167], [27.22562, -20.71475], [27.2586, -20.6895], [27.25843, -20.67644], [27.26573, -20.67003], [27.26812, -20.6591], [27.27497, -20.65803], [27.28737, -20.64078], [27.28424, -20.63411], [27.30422, -20.6192], [27.30891, -20.60631], [27.3024, -20.60116], [27.30194, -20.58978], [27.29458, -20.58602], [27.29648, -20.57844], [27.28636, -20.55234], [27.29993, -20.53191], [27.29627, -20.52151], [27.29952, -20.49441], [27.36231, -20.46819]]]}}, {"type": "Feature", "properties": {"shapeID": "57670837B77729612727439", "shapeName": "Central District"}, "geometry": {"type": "Polygon", "coordinates": [[[26.93083, -23.75464], [26.92548, -23.79522], [26.91671, -23.79572], [26.91598, -23.7836], [26.90746, -23.77662], [26.89726, -23.78374], [26.89655, -23.8027], [26.87834, -23.80103], [26.87075, -23.80523], [26.86522, -23.8136], [26.8725, -23.82386], [26.85528, -23.84036], [26.84423, -23.84116], [26.84356, -23.86117], [26.80046, -23.86283], [26.78703, -23.89419], [26.78024, -23.89269], [26.75609, -23.90665], [26.75836, -23.92484], [26.74226, -23.92643], [26.74032, -23.94067], [26.72976, -23.93678], [26.73045, -23.94978], [26.72201, -23.96232], [26.03221, -23.58114], [25.85949, -23.35735], [25.74597, -23.32066], [24.65897, -21.97508], [23.8844, -21.00019], [23.88423, -20.32957], [23.88952, -20.30241], [23.89967, -20.30533], [23.90598, -20.31798], [23.94008, -20.32696], [23.95595, -20.32344], [23.97016, -20.3065], [23.99696, -20.31122], [23.99721, -20.28873], [24.02258, -20.27153], [24.01959, -20.26356], [24.03067, -20.25169], [24.0539, -20.25417], [24.05782, -20.24334], [24.07942, -20.2317], [24.09737, -20.21485], [24.123, -20.21738], [24.13781, -20.20049], [24.15456, -20.19759], [24.15823, -20.20505], [24.19721, -20.21626], [24.20749, -20.2425], [24.23145, -20.25382], [24.24492, -20.24581], [24.2493, -20.22636], [24.26037, -20.22032], [24.26686, -20.24651], [24.28234, -20.25489], [24.28268, -20.27142], [24.2695, -20.28609], [24.27909, -20.298], [24.28445, -20.31546], [24.32609, -20.32118], [24.33612, -20.33091], [24.3401, -20.34304], [24.33737, -20.3517], [24.38349, -20.39206], [24.4096, -20.40367], [24.4434, -20.39805], [24.45919, -20.38726], [24.47125, -20.38522], [24.49272, -20.39175], [24.50303, -20.38623], [25.12869, -20.34208], [25.17819, -20.3423], [25.17605, -20.07179], [25.13542, -20.0559], [25.1182, -20.04356], [25.06075, -20.02882], [24.99921, -19.99687], [25.00461, -19.00003], [25.9888, -19.00108], [25.99658, -19.03154], [25.96534, -19.06667], [25.96146, -19.09034], [25.96453, -19.10793], [25.97491, -19.13161], [26.04192, -19.21058], [26.04372, -19.23665], [26.07239, -19.27202], [26.07431, -19.29209], [26.0977, -19.34751], [26.10857, -19.362], [26.12615, -19.4281], [26.14176, -19.43819], [26.15343, -19.50175], [26.17023, -19.54635], [26.21648, -19.56354], [26.24697, -19.58569], [26.31234, -19.57613], [26.32394, -19.59254], [26.35861, -19.61485], [26.33767, -19.63549], [26.32864, -19.65157], [26.32804, -19.66421], [26.35337, -19.67592], [26.39171, -19.67115], [26.39432, -19.68268], [26.40616, -19.69552], [26.41464, -19.7247], [26.44063, -19.7489], [26.53338, -19.7699], [26.54552, -19.78444], [26.5622, -19.78172], [26.58318, -19.80391], [26.5998, -19.8507], [26.619, -19.88122], [26.64296, -19.87286], [26.70277, -19.88772], [26.70196, -19.89466], [26.72651, -19.93989], [26.75392, -19.93654], [26.79542, -19.94704], [26.82846, -19.96202], [26.85146, -19.96157], [26.97887, -20.0145], [27.00591, -20.00792], [27.04042, -20.00874], [27.0836, -20.03159], [27.09482, -20.052], [27.1127, -20.06577], [27.14329, -20.07962], [27.18295, -20.07631], [27.20594, -20.08198], [27.23381, -20.12048], [27.26431, -20.19448], [27.26629, -20.21377], [27.28477, -20.23217], [27.29199, -20.2673], [27.28945, -20.27955], [27.30014, -20.29635], [27.30372, -20.31804], [27.29607, -20.3588], [27.29841, -20.42593], [27.28558, -20.4855], [27.28866, -20.49894], [27.29952, -20.49441], [27.29627, -20.52151], [27.29993, -20.53191], [27.28636, -20.55234], [27.29648, -20.57844], [27.29458, -20.58602], [27.30194, -20.58978], [27.3024, -20.60116], [27.30891, -20.60631], [27.30422, -20.6192], [27.28424, -20.63411], [27.28737, -20.64078], [27.27497, -20.65803], [27.26812, -20.6591], [27.26573, -20.67003], [27.25843, -20.67644], [27.2586, -20.6895], [27.22562, -20.71475], [27.22255, -20.75167], [27.22839, -20.76664], [27.21652, -20.7801], [27.21438, -20.7937], [27.21903, -20.80491], [27.21544, -20.81512], [27.22955, -20.83544], [27.22726, -20.85823], [27.25946, -20.8643], [27.27446, -20.87582], [27.32058, -20.94341], [27.32062, -20.95153], [27.33013, -20.95915], [27.33525, -20.98371], [27.34933, -20.99603], [27.3456, -21.00128], [27.35107, -21.02566], [27.34319, -21.03376], [27.36083, -21.04072], [27.3631, -21.05567], [27.3565, -21.06055], [27.36083, -21.06931], [27.35766, -21.10012], [27.34725, -21.11251], [27.35096, -21.11975], [27.3488, -21.14534], [27.35918, -21.16782], [27.37898, -21.17653], [27.38782, -21.18673], [27.38363, -21.19604], [27.39389, -21.21206], [27.3895, -21.23484], [27.39211, -21.25894], [27.40546, -21.28325], [27.40344, -21.29765], [27.40941, -21.30512], [27.40521, -21.3338], [27.42917, -21.36962], [27.45845, -21.39293], [27.46223, -21.42179], [27.48107, -21.43303], [27.49186, -21.45913], [27.51781, -21.47648], [27.5414, -21.46945], [27.55926, -21.49231], [27.5794, -21.4809], [27.5885, -21.49103], [27.5898, -21.50399], [27.60046, -21.5085], [27.61829, -21.53204], [27.74603, -21.55346], [27.75883, -21.56331], [27.77817, -21.5542], [27.82663, -21.54283], [27.8522, -21.55031], [27.85715, -21.53236], [27.86254, -21.52951], [27.87997, -21.54507], [27.9288, -21.53983], [27.93746, -21.54362], [27.94377, -21.55561], [27.96244, -21.55504], [27.97081, -21.56745], [28.00879, -21.56341], [28.02457, -21.5764], [28.06746, -21.57848], [28.0818, -21.58385], [28.09997, -21.57863], [28.14595, -21.59354], [28.19914, -21.60335], [28.29398, -21.58938], [28.33218, -21.59784], [28.34983, -21.6079], [28.36554, -21.60252], [28.4125, -21.63275], [28.44511, -21.64097], [28.45822, -21.65469], [28.50278, -21.66887], [28.52084, -21.6619], [28.53969, -21.64228], [28.55663, -21.64399], [28.57218, -21.63003], [28.57911, -21.6294], [28.59806, -21.64467], [28.65041, -21.65424], [28.67099, -21.67823], [28.74738, -21.7011], [28.77581, -21.71474], [28.79685, -21.73237], [28.833, -21.73606], [28.86232, -21.75574], [28.95918, -21.77557], [28.98547, -21.7688], [28.99949, -21.77106], [29.00746, -21.78921], [29.06264, -21.80267], [29.07698, -21.81785], [29.03885, -21.86116], [29.02067, -21.91472], [29.0202, -21.94277], [29.02619, -21.97234], [29.05383, -22.02226], [29.0879, -22.05129], [29.13911, -22.0721], [29.1967, -22.07462], [29.24708, -22.0598], [29.27023, -22.07938], [29.28887, -22.12278], [29.32828, -22.154], [29.35747, -22.1889], [29.3753, -22.19547], [29.35928, -22.19975], [29.3466, -22.19276], [29.33378, -22.20482], [29.32062, -22.187], [29.28422, -22.18611], [29.27716, -22.19263], [29.26598, -22.1894], [29.25773, -22.19339], [29.23829, -22.18182], [29.2189, -22.1781], [29.19077, -22.1858], [29.15003, -22.21589], [29.10802, -22.21243], [29.08132, -22.22112], [29.03592, -22.21658], [29.02887, -22.22844], [29.01942, -22.22621], [29.01418, -22.23094], [29.01367, -22.25691], [29.00486, -22.26256], [29.00277, -22.27472], [28.98214, -22.28519], [28.97611, -22.30049], [28.96658, -22.30754], [28.96353, -22.34718], [28.97145, -22.37698], [28.95244, -22.40408], [28.94434, -22.43201], [28.91851, -22.46057], [28.87987, -22.44768], [28.85608, -22.45119], [28.82973, -22.46462], [28.83371, -22.47982], [28.83105, -22.48825], [28.73746, -22.5045], [28.7077, -22.51603], [28.68779, -22.53352], [28.66975, -22.53468], [28.65804, -22.54834], [28.64126, -22.55803], [28.61744, -22.56248], [28.56409, -22.561], [28.52349, -22.58737], [28.50895, -22.58911], [28.47913, -22.57091], [28.34786, -22.57178], [28.33, -22.59366], [28.31125, -22.60635], [28.27843, -22.61493], [28.26723, -22.63883], [28.2466, -22.65631], [28.20967, -22.66446], [28.18261, -22.68857], [28.15916, -22.71954], [28.16423, -22.74804], [28.15096, -22.76963], [28.12144, -22.78452], [28.09481, -22.81369], [28.06798, -22.82777], [28.04142, -22.83308], [28.03921, -22.84249], [28.04741, -22.86061], [28.04447, -22.87189], [28.05132, -22.88463], [28.03711, -22.91279], [28.01378, -22.93099], [27.99358, -22.93738], [27.9597, -22.96063], [27.93982, -22.95631], [27.93529, -22.96557], [27.94264, -22.99476], [27.93727, -23.01339], [27.94349, -23.03622], [27.92009, -23.06831], [27.84793, -23.10476], [27.8327, -23.10889], [27.81406, -23.10647], [27.81327, -23.11511], [27.81947, -23.12481], [27.80698, -23.13563], [27.78188, -23.14309], [27.77847, -23.1318], [27.76644, -23.13417], [27.7653, -23.14242], [27.78334, -23.15767], [27.78514, -23.17078], [27.75962, -23.19056], [27.75076, -23.20573], [27.7521, -23.21926], [27.74208, -23.23004], [27.73378, -23.23326], [27.71399, -23.22861], [27.70372, -23.20374], [27.6893, -23.19623], [27.67201, -23.20048], [27.66038, -23.22066], [27.6495, -23.2257], [27.60248, -23.21621], [27.59612, -23.23293], [27.60121, -23.24717], [27.57294, -23.26531], [27.57631, -23.28094], [27.57309, -23.29421], [27.56018, -23.31488], [27.57074, -23.32599], [27.56706, -23.34112], [27.5628, -23.34956], [27.53853, -23.36583], [27.52865, -23.38527], [27.44198, -23.38467], [27.42832, -23.4247], [27.42184, -23.42653], [27.40998, -23.42429], [27.40122, -23.41303], [27.41023, -23.39959], [27.40838, -23.38909], [27.38766, -23.38997], [27.37724, -23.399], [27.37284, -23.41002], [27.38084, -23.42034], [27.37426, -23.42709], [27.34954, -23.42599], [27.35664, -23.39998], [27.337, -23.40039], [27.32518, -23.40658], [27.32498, -23.41706], [27.31178, -23.43357], [27.31689, -23.44611], [27.3104, -23.44709], [27.31317, -23.45047], [27.30543, -23.45316], [27.30252, -23.46296], [27.28763, -23.46231], [27.28432, -23.47062], [27.26723, -23.47795], [27.25861, -23.47228], [27.2364, -23.48494], [27.23332, -23.49591], [27.22384, -23.49468], [27.22612, -23.48508], [27.19241, -23.49808], [27.194, -23.51464], [27.21087, -23.52603], [27.20187, -23.52866], [27.201, -23.53434], [27.18819, -23.53297], [27.17216, -23.52188], [27.16614, -23.52466], [27.16469, -23.53635], [27.15992, -23.53705], [27.14787, -23.52375], [27.1357, -23.52319], [27.1333, -23.52856], [27.13953, -23.52881], [27.13462, -23.54363], [27.14004, -23.55332], [27.14837, -23.55131], [27.15468, -23.56937], [27.15078, -23.56763], [27.14576, -23.57477], [27.12994, -23.57407], [27.13119, -23.56941], [27.11723, -23.56221], [27.1133, -23.57054], [27.10802, -23.56737], [27.10861, -23.59035], [27.09972, -23.60294], [27.08163, -23.5989], [27.07966, -23.60723], [27.08505, -23.60901], [27.07998, -23.61353], [27.07357, -23.61453], [27.0726, -23.60942], [27.05939, -23.61258], [27.06304, -23.62561], [27.06877, -23.62558], [27.08115, -23.64331], [27.08131, -23.65515], [27.07459, -23.65478], [27.07776, -23.6608], [27.07015, -23.67101], [27.03796, -23.68266], [27.03111, -23.67567], [27.03655, -23.65651], [27.02741, -23.65998], [27.02126, -23.65518], [27.02572, -23.64447], [27.01109, -23.63778], [27.00285, -23.64426], [26.99568, -23.6527], [27.00261, -23.66475], [26.99784, -23.67719], [27.00241, -23.68808], [26.97107, -23.70276], [26.97433, -23.71338], [26.96212, -23.74675], [26.93083, -23.75464]]]}}, {"type": "Feature", "properties": {"shapeID": "57670837B99453960122440", "shapeName": "Ghanzi District"}, "geometry": {"type": "Polygon", "coordinates": [[[24.65897, -21.97508], [25.44662, -22.9473], [25.23868, -23.32113], [19.99913, -23.32048], [19.99915, -21.99992], [20.99874, -22.00034], [20.99895, -20.99542], [23.11536, -21.00318], [23.14523, -20.99924], [23.8844, -21.00019], [24.65897, -21.97508]]]}}, {"type": "Feature", "properties": {"shapeID": "57670837B49806718353307", "shapeName": "Kweneng District"}, "geometry": {"type": "Polygon", "coordinates": [[[25.95176, -24.5385], [25.95002, -24.53558], [25.90518, -24.55769], [25.89701, -24.55692], [25.88836, -24.56601], [25.89118, -24.57077], [25.90299, -24.56771], [25.87359, -24.58222], [25.89581, -24.58487], [25.9027, -24.59842], [25.78912, -24.73281], [25.71563, -24.78728], [25.67962, -24.7811], [25.44042, -24.68314], [25.42784, -24.69285], [25.41273, -24.69319], [25.40012, -24.68764], [25.39354, -24.67845], [25.38114, -24.68553], [25.37526, -24.67932], [25.35921, -24.6845], [25.34412, -24.68016], [25.3358, -24.67597], [25.3317, -24.65998], [25.31904, -24.64821], [25.2919, -24.63808], [24.7772, -24.50112], [23.05903, -24.0051], [23.05906, -23.60066], [22.96451, -23.60066], [22.96454, -23.44087], [23.05903, -23.44092], [23.05901, -23.32096], [25.23868, -23.32113], [25.44662, -22.9473], [25.74597, -23.32066], [25.85949, -23.35735], [26.03221, -23.58114], [25.95556, -24.2853], [25.96783, -24.28597], [25.95065, -24.30271], [25.94491, -24.33095], [25.90616, -24.38583], [25.88393, -24.39837], [25.89763, -24.43562], [25.89458, -24.44821], [25.88623, -24.45521], [25.89573, -24.45913], [25.90831, -24.47668], [25.9271, -24.47819], [25.93615, -24.47147], [25.97278, -24.51263], [25.95176, -24.5385]]]}}, {"type": "Feature", "properties": {"shapeID": "57670837B18017563073821", "shapeName": "Southern District"}, "geometry": {"type": "Polygon", "coordinates": [[[25.70903, -24.85352], [25.63375, -24.88567], [25.66091, -24.91169], [25.59975, -25.02177], [25.66827, -25.02787], [25.53901, -25.43584], [25.6127, -25.4472], [25.66212, -25.46729], [25.58088, -25.6388], [25.55762, -25.64978], [25.51299, -25.68472], [25.46946, -25.69585], [25.42377, -25.73142], [25.38699, -25.74422], [25.33481, -25.77087], [25.31591, -25.77243], [25.29943, -25.76568], [25.21983, -25.76589], [25.2035, -25.75841], [25.17262, -25.76619], [25.14369, -25.75639], [25.12139, -25.76375], [25.10874, -25.75442], [25.10995, -25.74866], [25.10224, -25.74804], [25.10433, -25.74115], [25.08701, -25.74094], [25.0809, -25.73039], [25.0716, -25.73629], [25.06171, -25.73552], [25.05158, -25.72609], [25.03746, -25.72221], [25.02294, -25.731], [25.01468, -25.72549], [25.00057, -25.72956], [25.00362, -25.73866], [24.98967, -25.74544], [24.98387, -25.75433], [24.97529, -25.75387], [24.96674, -25.76606], [24.95438, -25.76029], [24.95138, -25.77167], [24.93382, -25.77664], [24.9278, -25.78769], [24.92029, -25.79], [24.9128, -25.78441], [24.91307, -25.79752], [24.89763, -25.80256], [24.89693, -25.81077], [24.86959, -25.80539], [24.83347, -25.81531], [24.82465, -25.81174], [24.81838, -25.81699], [24.81317, -25.81032], [24.8105, -25.81836], [24.79473, -25.82525], [24.7875, -25.81749], [24.77836, -25.81975], [24.76171, -25.81098], [24.74814, -25.81409], [24.72902, -25.804], [24.69655, -25.81132], [24.68269, -25.82386], [24.67573, -25.81795], [24.66426, -25.81832], [24.6089, -25.80065], [24.5694, -25.77269], [24.54435, -25.77204], [24.50818, -25.75829], [24.49924, -25.65652], [24.41091, -25.65652], [24.25002, -25.51141], [24.25002, -24.99878], [24.09544, -24.85367], [23.05909, -24.85349], [23.05903, -24.0051], [24.7772, -24.50112], [25.2919, -24.63808], [25.31904, -24.64821], [25.3317, -24.65998], [25.3358, -24.67597], [25.34412, -24.68016], [25.35921, -24.6845], [25.37526, -24.67932], [25.38114, -24.68553], [25.39354, -24.67845], [25.40012, -24.68764], [25.41273, -24.69319], [25.42784, -24.69285], [25.44042, -24.68314], [25.67962, -24.7811], [25.71563, -24.78728], [25.70903, -24.85352]]]}}, {"type": "Feature", "properties": {"shapeID": "57670837B51384475500083", "shapeName": "Kgalagadi District"}, "geometry": {"type": "Polygon", "coordinates": [[[23.05901, -23.32096], [23.05903, -23.44092], [22.96454, -23.44087], [22.96447, -23.45672], [22.96451, -23.60066], [23.05906, -23.60066], [23.05909, -24.85349], [24.09544, -24.85367], [24.25002, -24.99878], [24.25002, -25.51141], [24.41091, -25.65652], [24.49924, -25.65652], [24.50818, -25.75829], [24.47188, -25.7472], [24.46737, -25.73753], [24.45866, -25.74313], [24.44668, -25.73357], [24.44137, -25.74087], [24.43288, -25.73404], [24.43241, -25.74581], [24.42599, -25.75148], [24.40538, -25.7471], [24.40128, -25.76245], [24.39239, -25.75486], [24.38081, -25.76486], [24.35638, -25.75788], [24.32424, -25.7317], [24.32638, -25.71088], [24.30079, -25.71424], [24.28569, -25.72666], [24.27829, -25.71432], [24.29104, -25.70678], [24.28841, -25.69426], [24.27866, -25.6967], [24.27241, -25.70566], [24.26089, -25.70727], [24.26072, -25.6919], [24.24729, -25.68481], [24.25161, -25.67458], [24.23661, -25.66995], [24.22632, -25.65542], [24.22683, -25.64398], [24.21507, -25.64424], [24.19177, -25.62036], [24.17079, -25.63108], [24.15945, -25.63012], [24.15686, -25.6254], [24.16308, -25.61516], [24.15711, -25.60816], [24.14058, -25.61419], [24.13861, -25.62806], [24.10434, -25.63036], [24.08583, -25.64337], [24.07758, -25.6308], [24.06774, -25.63096], [24.06425, -25.63522], [24.06721, -25.64838], [24.05859, -25.65187], [24.02994, -25.63427], [24.0258, -25.64468], [24.00524, -25.65133], [24.00298, -25.63455], [24.01201, -25.62449], [24.00371, -25.62022], [23.98381, -25.62163], [23.97259, -25.61485], [23.96605, -25.61532], [23.96196, -25.62297], [23.95045, -25.62293], [23.95193, -25.63418], [23.94574, -25.63848], [23.92855, -25.63837], [23.91874, -25.62948], [23.90451, -25.62752], [23.90165, -25.62237], [23.90703, -25.6055], [23.88283, -25.59495], [23.88024, -25.57745], [23.83969, -25.56789], [23.8434, -25.55198], [23.83516, -25.54108], [23.82094, -25.55053], [23.80889, -25.54535], [23.80481, -25.53329], [23.8219, -25.51651], [23.82047, -25.51194], [23.80383, -25.50824], [23.78593, -25.51243], [23.77689, -25.50359], [23.76294, -25.50301], [23.76419, -25.48963], [23.75201, -25.48105], [23.75899, -25.46907], [23.73409, -25.45836], [23.72933, -25.44629], [23.72199, -25.44668], [23.70338, -25.46272], [23.70263, -25.45168], [23.69522, -25.44456], [23.68043, -25.44757], [23.66658, -25.44139], [23.67717, -25.42687], [23.66905, -25.41625], [23.65996, -25.41527], [23.65369, -25.43099], [23.63746, -25.43158], [23.63274, -25.41095], [23.61152, -25.40351], [23.62026, -25.38989], [23.616, -25.38392], [23.60656, -25.38166], [23.59877, -25.39511], [23.58931, -25.39646], [23.58436, -25.39159], [23.5844, -25.37562], [23.56745, -25.3699], [23.55727, -25.37174], [23.55959, -25.35466], [23.53409, -25.3525], [23.52405, -25.34008], [23.49618, -25.35157], [23.50044, -25.33185], [23.49432, -25.31795], [23.48288, -25.31043], [23.47837, -25.29846], [23.45814, -25.29774], [23.46805, -25.28017], [23.46579, -25.27675], [23.44223, -25.27697], [23.42347, -25.30918], [23.4143, -25.3158], [23.40354, -25.30724], [23.36841, -25.30343], [23.36223, -25.28778], [23.35555, -25.28514], [23.32408, -25.29242], [23.31125, -25.28183], [23.29501, -25.29409], [23.27805, -25.2741], [23.25998, -25.27968], [23.24756, -25.27539], [23.23456, -25.28079], [23.21202, -25.27342], [23.18754, -25.27898], [23.17307, -25.28975], [23.16555, -25.30393], [23.14796, -25.30325], [23.13454, -25.31742], [23.1136, -25.30356], [23.10739, -25.30418], [23.08836, -25.31358], [23.08791, -25.325], [23.07869, -25.33197], [23.05975, -25.32597], [23.05444, -25.31861], [23.06203, -25.30338], [23.05842, -25.28994], [23.05156, -25.29082], [23.03079, -25.31293], [23.01034, -25.29723], [23.00612, -25.30409], [23.01132, -25.33586], [22.97794, -25.33986], [22.97266, -25.34721], [22.97645, -25.37067], [22.97, -25.38114], [22.91907, -25.41224], [22.90995, -25.42231], [22.89857, -25.45514], [22.88574, -25.46839], [22.88806, -25.47713], [22.90075, -25.48128], [22.90044, -25.48685], [22.86375, -25.47962], [22.84637, -25.49017], [22.86035, -25.507], [22.85202, -25.52104], [22.85349, -25.53351], [22.84014, -25.54467], [22.82711, -25.57174], [22.81407, -25.58242], [22.84738, -25.60562], [22.85337, -25.61517], [22.84777, -25.62141], [22.83056, -25.6209], [22.80042, -25.63277], [22.80827, -25.6509], [22.83021, -25.65777], [22.82151, -25.67744], [22.82148, -25.69047], [22.79992, -25.72312], [22.76932, -25.73284], [22.75933, -25.78866], [22.73854, -25.78779], [22.73458, -25.79366], [22.75113, -25.8062], [22.77677, -25.81467], [22.78172, -25.82327], [22.77157, -25.84128], [22.73571, -25.85674], [22.74146, -25.8756], [22.73778, -25.88207], [22.71203, -25.89296], [22.71816, -25.90562], [22.74924, -25.918], [22.72856, -25.93895], [22.7239, -25.95009], [22.72958, -25.9764], [22.72474, -26.01524], [22.70871, -26.0202], [22.67263, -26.01319], [22.66571, -26.0179], [22.67312, -26.07346], [22.63172, -26.0945], [22.62898, -26.1022], [22.63667, -26.11203], [22.63536, -26.1181], [22.60914, -26.1273], [22.60486, -26.14922], [22.59906, -26.15175], [22.58776, -26.14162], [22.57823, -26.1421], [22.57747, -26.19181], [22.56341, -26.20599], [22.55518, -26.22345], [22.52935, -26.22679], [22.47336, -26.19999], [22.45413, -26.2279], [22.42006, -26.22442], [22.41506, -26.23797], [22.3988, -26.24813], [22.40597, -26.2644], [22.40291, -26.2727], [22.38619, -26.28503], [22.36311, -26.28578], [22.36719, -26.31465], [22.36295, -26.32553], [22.32593, -26.32226], [22.30689, -26.34408], [22.28531, -26.33997], [22.24233, -26.34994], [22.23858, -26.37072], [22.19872, -26.39164], [22.18998, -26.40113], [22.20024, -26.42478], [22.18144, -26.4393], [22.18545, -26.46121], [22.18198, -26.46936], [22.16021, -26.48295], [22.16348, -26.50859], [22.13579, -26.52294], [22.13355, -26.54396], [22.10792, -26.54935], [22.0982, -26.57106], [22.07726, -26.58135], [22.06951, -26.60799], [22.04842, -26.63477], [22.01735, -26.63627], [22.00056, -26.64806], [21.98529, -26.64979], [21.94879, -26.66985], [21.92629, -26.66461], [21.88334, -26.67054], [21.82346, -26.65969], [21.80811, -26.6704], [21.78742, -26.67589], [21.7691, -26.69516], [21.77047, -26.70418], [21.78753, -26.7222], [21.78466, -26.75004], [21.79335, -26.77072], [21.78358, -26.78555], [21.78099, -26.80232], [21.77178, -26.80286], [21.6947, -26.86127], [21.67746, -26.85397], [21.66298, -26.86456], [21.62688, -26.86665], [21.60309, -26.84512], [21.57557, -26.8399], [21.56149, -26.85005], [21.54092, -26.84312], [21.52538, -26.86184], [21.48537, -26.84138], [21.46189, -26.84074], [21.44159, -26.82765], [21.4042, -26.82213], [21.37541, -26.83068], [21.3331, -26.82547], [21.31239, -26.84408], [21.29743, -26.84917], [21.28838, -26.84873], [21.2696, -26.83725], [21.24562, -26.84577], [21.22198, -26.84346], [21.19257, -26.85289], [21.17716, -26.86634], [21.13367, -26.87365], [21.11534, -26.85939], [21.07798, -26.84847], [21.06008, -26.85165], [21.01099, -26.84663], [20.97179, -26.80724], [20.94661, -26.81389], [20.89812, -26.7963], [20.88523, -26.79727], [20.84436, -26.81862], [20.8207, -26.81927], [20.81634, -26.84166], [20.78663, -26.84171], [20.76351, -26.86635], [20.71498, -26.87014], [20.698, -26.89873], [20.68564, -26.90564], [20.67605, -26.86092], [20.6852, -26.84741], [20.68251, -26.84004], [20.64493, -26.82879], [20.64317, -26.82086], [20.65058, -26.80987], [20.63602, -26.79392], [20.62197, -26.78652], [20.63731, -26.76887], [20.62569, -26.74916], [20.63466, -26.72565], [20.62095, -26.71343], [20.61445, -26.68644], [20.61749, -26.67689], [20.63513, -26.66478], [20.62897, -26.64299], [20.63237, -26.59218], [20.62903, -26.58068], [20.60976, -26.55995], [20.6046, -26.51427], [20.61122, -26.49934], [20.61764, -26.44359], [20.62584, -26.43486], [20.65142, -26.43163], [20.67684, -26.39792], [20.69337, -26.39736], [20.69876, -26.36541], [20.7209, -26.33248], [20.73926, -26.3222], [20.75883, -26.287], [20.78942, -26.27174], [20.81623, -26.21427], [20.81507, -26.19355], [20.81932, -26.18232], [20.84623, -26.15937], [20.86303, -26.13366], [20.85776, -26.12387], [20.84117, -26.12343], [20.82084, -26.10397], [20.84209, -26.08169], [20.82549, -26.07029], [20.82002, -26.0603], [20.83606, -26.03865], [20.83228, -26.02266], [20.81659, -26.0075], [20.84053, -25.95588], [20.80354, -25.92019], [20.79831, -25.90055], [20.81274, -25.88898], [20.81366, -25.87178], [20.80834, -25.86344], [20.78768, -25.85996], [20.783, -25.85377], [20.78923, -25.8346], [20.78865, -25.80305], [20.77636, -25.80226], [20.7531, -25.82527], [20.73975, -25.82292], [20.7445, -25.80456], [20.76259, -25.79042], [20.76295, -25.78063], [20.75466, -25.77261], [20.731, -25.77002], [20.73075, -25.74794], [20.71671, -25.7163], [20.67712, -25.68636], [20.67602, -25.6699], [20.68754, -25.65142], [20.68754, -25.63501], [20.67316, -25.62971], [20.6583, -25.63881], [20.65156, -25.63575], [20.66379, -25.60645], [20.69021, -25.6032], [20.69842, -25.59236], [20.66908, -25.54928], [20.65106, -25.53263], [20.63416, -25.52888], [20.62978, -25.51958], [20.64297, -25.4985], [20.63616, -25.47525], [20.66765, -25.46962], [20.67411, -25.46159], [20.67297, -25.4501], [20.66003, -25.44572], [20.64403, -25.46244], [20.62227, -25.46187], [20.61715, -25.44607], [20.63366, -25.43152], [20.63094, -25.42507], [20.62549, -25.4216], [20.60309, -25.428], [20.59844, -25.42205], [20.60531, -25.40355], [20.60145, -25.39455], [20.59199, -25.38997], [20.5786, -25.39652], [20.56622, -25.39487], [20.56204, -25.38922], [20.53923, -25.34478], [20.55001, -25.32688], [20.54788, -25.32047], [20.53671, -25.31892], [20.52173, -25.32472], [20.5139, -25.31714], [20.51733, -25.30649], [20.54274, -25.29281], [20.54588, -25.28617], [20.52829, -25.28782], [20.51903, -25.27493], [20.50589, -25.27548], [20.49644, -25.26898], [20.48732, -25.25307], [20.49894, -25.22842], [20.48885, -25.22251], [20.47151, -25.22843], [20.46225, -25.21151], [20.44657, -25.19916], [20.44739, -25.18851], [20.46194, -25.18382], [20.4674, -25.17632], [20.46935, -25.1567], [20.45961, -25.14968], [20.44486, -25.15806], [20.43144, -25.1545], [20.42767, -25.14855], [20.43158, -25.1359], [20.42426, -25.12818], [20.42941, -25.11626], [20.41961, -25.10437], [20.41089, -25.1033], [20.41584, -25.08921], [20.41235, -25.08227], [20.39241, -25.07699], [20.37883, -25.06175], [20.38549, -25.05028], [20.38405, -25.03437], [20.35627, -25.02444], [20.34856, -25.0091], [20.32823, -25.00581], [20.31723, -24.98661], [20.29651, -24.98062], [20.28608, -24.96957], [20.28702, -24.95482], [20.27216, -24.94686], [20.26571, -24.92852], [20.25912, -24.9236], [20.23309, -24.91379], [20.22218, -24.91997], [20.20356, -24.89644], [20.19752, -24.89704], [20.18948, -24.91043], [20.18179, -24.91184], [20.15024, -24.87954], [20.1216, -24.88496], [20.11547, -24.88063], [20.10918, -24.86228], [20.0877, -24.85239], [20.09054, -24.83306], [20.06665, -24.82833], [20.06519, -24.8141], [20.03814, -24.80945], [20.02934, -24.78802], [20.00013, -24.76769], [19.99913, -23.32048], [23.05901, -23.32096]]]}}, {"type": "Feature", "properties": {"shapeID": "57670837B3917923701881", "shapeName": "North-West District"}, "geometry": {"type": "Polygon", "coordinates": [[[24.99921, -19.99687], [25.06075, -20.02882], [25.1182, -20.04356], [25.13542, -20.0559], [25.17605, -20.07179], [25.17819, -20.3423], [25.12869, -20.34208], [24.50303, -20.38623], [24.49272, -20.39175], [24.47125, -20.38522], [24.45919, -20.38726], [24.4434, -20.39805], [24.4096, -20.40367], [24.38349, -20.39206], [24.33737, -20.3517], [24.3401, -20.34304], [24.33612, -20.33091], [24.32609, -20.32118], [24.28445, -20.31546], [24.27909, -20.298], [24.2695, -20.28609], [24.28268, -20.27142], [24.28234, -20.25489], [24.26686, -20.24651], [24.26037, -20.22032], [24.2493, -20.22636], [24.24492, -20.24581], [24.23145, -20.25382], [24.20749, -20.2425], [24.19721, -20.21626], [24.15823, -20.20505], [24.15456, -20.19759], [24.13781, -20.20049], [24.123, -20.21738], [24.09737, -20.21485], [24.07942, -20.2317], [24.05782, -20.24334], [24.0539, -20.25417], [24.03067, -20.25169], [24.01959, -20.26356], [24.02258, -20.27153], [23.99721, -20.28873], [23.99696, -20.31122], [23.97016, -20.3065], [23.95595, -20.32344], [23.94008, -20.32696], [23.90598, -20.31798], [23.89967, -20.30533], [23.88952, -20.30241], [23.88423, -20.32957], [23.8844, -21.00019], [23.14523, -20.99924], [23.11536, -21.00318], [20.99895, -20.99542], [20.99895, -18.31757], [21.45304, -18.31765], [23.09837, -18.00082], [23.29693, -18.00079], [23.29654, -18.00604], [23.30868, -18.00181], [23.30435, -18.01178], [23.31698, -18.02347], [23.30793, -18.03754], [23.32105, -18.03826], [23.32134, -18.04936], [23.33495, -18.05233], [23.32028, -18.05855], [23.3241, -18.08248], [23.33378, -18.08884], [23.33995, -18.08606], [23.35243, -18.10397], [23.35027, -18.10995], [23.35827, -18.11264], [23.35799, -18.11772], [23.36739, -18.11633], [23.36393, -18.12693], [23.3805, -18.13629], [23.3843, -18.16375], [23.39026, -18.16204], [23.40295, -18.17464], [23.40475, -18.18849], [23.39855, -18.19238], [23.40244, -18.19596], [23.39746, -18.20811], [23.41005, -18.20349], [23.42066, -18.2136], [23.42033, -18.20551], [23.4242, -18.20408], [23.42731, -18.21011], [23.43456, -18.20908], [23.43359, -18.21349], [23.44553, -18.21288], [23.45313, -18.23619], [23.45827, -18.23348], [23.46924, -18.24674], [23.47611, -18.24162], [23.50042, -18.24182], [23.4981, -18.25499], [23.50451, -18.25333], [23.50113, -18.25884], [23.5066, -18.26182], [23.50301, -18.26608], [23.52025, -18.2683], [23.52111, -18.27583], [23.52406, -18.27251], [23.52582, -18.27311], [23.52195, -18.28531], [23.5309, -18.28567], [23.52585, -18.29078], [23.53407, -18.29617], [23.52747, -18.31242], [23.53259, -18.31667], [23.52795, -18.31979], [23.53701, -18.31902], [23.53677, -18.32716], [23.55128, -18.33723], [23.55856, -18.33681], [23.55212, -18.3468], [23.55352, -18.3583], [23.56445, -18.3698], [23.56016, -18.37552], [23.55331, -18.37323], [23.55046, -18.38208], [23.55084, -18.39068], [23.5606, -18.39163], [23.56433, -18.4134], [23.5572, -18.42171], [23.55481, -18.44021], [23.56181, -18.45035], [23.57162, -18.45449], [23.56866, -18.46052], [23.57324, -18.46756], [23.56694, -18.47287], [23.56764, -18.48073], [23.59315, -18.4963], [23.61609, -18.50233], [23.64696, -18.4783], [23.65902, -18.47751], [23.67902, -18.45201], [23.68698, -18.43079], [23.69304, -18.43458], [23.70216, -18.43054], [23.71433, -18.43634], [23.73769, -18.42506], [23.74544, -18.41127], [23.75565, -18.40378], [23.76145, -18.40647], [23.77504, -18.3875], [23.78699, -18.38453], [23.79592, -18.37397], [23.79299, -18.36554], [23.80308, -18.36025], [23.80406, -18.35138], [23.80845, -18.35353], [23.80291, -18.33995], [23.8207, -18.33048], [23.82734, -18.33454], [23.8339, -18.32301], [23.83579, -18.3285], [23.83916, -18.32411], [23.84455, -18.32679], [23.84095, -18.32359], [23.84945, -18.31818], [23.8513, -18.30176], [23.86057, -18.30085], [23.86407, -18.30517], [23.86156, -18.29564], [23.87327, -18.2892], [23.86891, -18.28186], [23.87685, -18.27343], [23.88191, -18.27558], [23.88218, -19.00042], [25.00461, -19.00003], [24.99921, -19.99687]]]}}, {"type": "Feature", "properties": {"shapeID": "57670837B89802666826813", "shapeName": "Chobe District"}, "geometry": {"type": "Polygon", "coordinates": [[[23.88218, -19.00042], [23.8832, -18.26996], [23.8973, -18.26271], [23.90489, -18.2661], [23.90773, -18.25978], [23.9087, -18.26503], [23.91535, -18.26322], [23.9199, -18.25309], [23.92513, -18.25623], [23.92643, -18.24957], [23.93209, -18.25054], [23.93445, -18.23629], [23.91912, -18.22446], [23.9315, -18.2044], [23.94159, -18.20513], [23.95975, -18.18399], [23.96305, -18.19066], [23.96972, -18.19056], [23.96939, -18.18637], [23.97536, -18.19138], [23.98662, -18.17362], [23.99068, -18.17523], [23.98917, -18.16534], [23.9923, -18.16982], [23.99948, -18.16923], [23.9986, -18.16333], [24.00565, -18.16649], [24.0062, -18.15775], [24.0162, -18.15192], [24.01366, -18.1479], [24.01868, -18.14641], [24.01961, -18.15094], [24.02234, -18.14379], [24.02462, -18.14874], [24.03107, -18.14627], [24.02915, -18.14014], [24.0485, -18.13839], [24.05794, -18.12796], [24.05336, -18.12673], [24.05492, -18.12229], [24.06118, -18.12321], [24.05133, -18.11002], [24.05925, -18.11078], [24.06302, -18.11647], [24.06484, -18.11149], [24.08073, -18.11921], [24.08325, -18.11514], [24.08988, -18.12053], [24.10368, -18.1092], [24.10807, -18.11052], [24.11489, -18.10311], [24.1122, -18.10106], [24.12083, -18.09763], [24.11968, -18.09307], [24.12393, -18.09486], [24.12754, -18.08672], [24.13595, -18.08523], [24.14329, -18.07555], [24.14674, -18.07877], [24.15205, -18.06993], [24.14906, -18.06681], [24.15864, -18.06307], [24.16015, -18.05219], [24.1733, -18.04796], [24.16859, -18.03638], [24.17993, -18.04088], [24.19, -18.02534], [24.19504, -18.02624], [24.19145, -18.0222], [24.19581, -18.01834], [24.19737, -18.02306], [24.20031, -18.0177], [24.21054, -18.0166], [24.23706, -18.02658], [24.24405, -18.0246], [24.24502, -18.01894], [24.26868, -18.01129], [24.27947, -18.01672], [24.2856, -18.03079], [24.29472, -18.03657], [24.30374, -18.00696], [24.3175, -17.99717], [24.32692, -17.99759], [24.35045, -17.9703], [24.35181, -17.96284], [24.36042, -17.96208], [24.37201, -17.94925], [24.3881, -17.94727], [24.39121, -17.95581], [24.39959, -17.9586], [24.40801, -17.9508], [24.4182, -17.95996], [24.42346, -17.95179], [24.45024, -17.97354], [24.45007, -17.96579], [24.45717, -17.96336], [24.45957, -17.98182], [24.45441, -17.98487], [24.46569, -17.98912], [24.46684, -17.99654], [24.47125, -17.99432], [24.47089, -18.0062], [24.48721, -18.01474], [24.48156, -18.03474], [24.49032, -18.03826], [24.48856, -18.04563], [24.49908, -18.04273], [24.49527, -18.05528], [24.50829, -18.06593], [24.51198, -18.0631], [24.50912, -18.05642], [24.51843, -18.06345], [24.52385, -18.0572], [24.52213, -18.05125], [24.53132, -18.05441], [24.52857, -18.05911], [24.53412, -18.0585], [24.5389, -18.0703], [24.54109, -18.06467], [24.54355, -18.07056], [24.54947, -18.07027], [24.5508, -18.06541], [24.56658, -18.07171], [24.57218, -18.06891], [24.57542, -18.07387], [24.58192, -18.05757], [24.598, -18.04914], [24.59898, -18.03559], [24.60841, -18.03499], [24.60737, -18.02372], [24.61615, -18.02048], [24.61162, -18.00717], [24.61891, -18.0043], [24.61686, -17.99437], [24.6285, -17.99554], [24.62773, -17.98373], [24.63451, -17.98452], [24.63579, -17.97801], [24.64612, -17.9783], [24.64935, -17.96826], [24.66256, -17.96167], [24.66578, -17.94975], [24.66983, -17.95164], [24.67455, -17.94535], [24.68112, -17.94862], [24.69434, -17.93687], [24.69329, -17.94235], [24.69923, -17.94288], [24.70851, -17.92206], [24.72001, -17.92274], [24.71866, -17.9158], [24.72658, -17.9121], [24.72396, -17.90386], [24.73428, -17.89836], [24.7306, -17.89482], [24.73946, -17.88434], [24.74699, -17.88736], [24.7501, -17.89674], [24.75718, -17.89495], [24.77467, -17.88231], [24.77076, -17.87221], [24.7782, -17.87659], [24.79409, -17.86995], [24.79594, -17.87569], [24.82345, -17.84591], [24.83054, -17.85036], [24.84256, -17.84676], [24.85361, -17.85066], [24.88931, -17.82853], [24.90063, -17.8303], [24.91112, -17.81008], [24.91639, -17.81505], [24.92758, -17.81394], [24.92876, -17.80884], [24.93195, -17.81992], [24.95345, -17.80187], [24.95957, -17.78832], [24.97592, -17.78824], [24.98218, -17.79274], [24.98048, -17.79796], [24.96455, -17.80452], [24.96799, -17.81065], [24.98081, -17.8133], [24.97512, -17.81955], [24.97637, -17.82593], [24.99397, -17.82981], [24.99738, -17.81794], [25.00415, -17.81566], [25.00946, -17.82578], [25.00366, -17.82497], [24.9999, -17.83138], [25.00491, -17.83791], [25.01339, -17.83828], [25.05417, -17.80776], [25.06007, -17.81256], [25.06154, -17.82593], [25.04925, -17.83066], [25.06565, -17.841], [25.11615, -17.82581], [25.12902, -17.80193], [25.14394, -17.80797], [25.15686, -17.78118], [25.16252, -17.77825], [25.2227, -17.79364], [25.25625, -17.79489], [25.26166, -17.79073], [25.26473, -17.81689], [25.23967, -17.87252], [25.23903, -17.89004], [25.24342, -17.89759], [25.23732, -17.91195], [25.25282, -17.94102], [25.26548, -17.94852], [25.28198, -17.99069], [25.28097, -18.00617], [25.28973, -18.02943], [25.31308, -18.05957], [25.319, -18.07803], [25.3553, -18.09076], [25.36434, -18.09896], [25.37052, -18.11765], [25.39349, -18.12137], [25.41566, -18.15289], [25.45543, -18.22713], [25.46609, -18.25975], [25.49205, -18.29984], [25.52355, -18.38393], [25.57013, -18.43021], [25.6038, -18.4779], [25.64749, -18.4961], [25.65593, -18.52009], [25.6922, -18.57301], [25.7175, -18.59203], [25.75689, -18.60427], [25.78245, -18.62449], [25.79007, -18.66234], [25.80372, -18.68591], [25.79173, -18.69863], [25.79552, -18.75092], [25.80619, -18.78991], [25.81978, -18.80838], [25.82546, -18.8373], [25.86882, -18.85866], [25.9237, -18.89918], [25.93838, -18.90048], [25.94704, -18.90773], [25.98485, -18.97328], [25.9888, -19.00108], [23.88218, -19.00042]]]}}]}